start=new Date('2022-01-30T00:00:00.000Z').valueOf();
sats=[{"SITE":"AFETR","SEMIMAJOR_AXIS":"6916.048","OBJECT_NAME":"STARLINK-1126","REF_FRAME":"TEME","LAUNCH_DATE":"2020-01-07","GP_ID":"194911841","MEAN_MOTION":"15.09439584","OBJECT_TYPE":"PAYLOAD","TLE_LINE1":"1 44951U 20001AP  22029.85873474  .00003314  00000-0  22264-3 0  9997","BSTAR":"0.00022264000000","FILE":"3287083","ELEMENT_SET_NO":"999","OBJECT_ID":"2020-001AP","NORAD_CAT_ID":"44951","TLE_LINE2":"2 44951  53.0022 214.2313 0003188 107.2599 252.8739 15.09439584115401","EPHEMERIS_TYPE":"0","INCLINATION":"53.0022","MEAN_ELEMENT_THEORY":"SGP4","PERIAPSIS":"535.708","DECAY_DATE":null,"PERIOD":"95.400","MEAN_ANOMALY":"252.8739","MEAN_MOTION_DDOT":"0.0000000000000","COUNTRY_CODE":"US","MEAN_MOTION_DOT":"0.00003314","CLASSIFICATION_TYPE":"U","APOAPSIS":"540.118","ECCENTRICITY":"0.00031880","EPOCH":"2022-01-29T20:36:34.681536","RCS_SIZE":"LARGE","REV_AT_EPOCH":"11540","TIME_SYSTEM":"UTC","ARG_OF_PERICENTER":"107.2599","CENTER_NAME":"EARTH","RA_OF_ASC_NODE":"214.2313"},{"ELEMENT_SET_NO":"999","OBJECT_ID":"2020-001AQ","OBJECT_TYPE":"PAYLOAD","MEAN_MOTION":"15.06367092","TLE_LINE1":"1 44952U 20001AQ  22029.90181155 -.00004526  00000-0 -28535-3 0  9997","BSTAR":"-0.00028535000000","FILE":"3287083","LAUNCH_DATE":"2020-01-07","GP_ID":"194911088","SITE":"AFETR","SEMIMAJOR_AXIS":"6925.449","OBJECT_NAME":"STARLINK-1117","REF_FRAME":"TEME","MEAN_MOTION_DDOT":"0.0000000000000","INCLINATION":"53.0538","MEAN_ELEMENT_THEORY":"SGP4","PERIAPSIS":"546.032","DECAY_DATE":null,"PERIOD":"95.594","MEAN_ANOMALY":"288.7846","NORAD_CAT_ID":"44952","TLE_LINE2":"2 44952  53.0538 219.4293 0001852  71.3344 288.7846 15.06367092114073","EPHEMERIS_TYPE":"0","EPOCH":"2022-01-29T21:38:36.517920","CLASSIFICATION_TYPE":"U","APOAPSIS":"548.597","ECCENTRICITY":"0.00018520","MEAN_MOTION_DOT":"-0.00004526","COUNTRY_CODE":"US","CENTER_NAME":"EARTH","RA_OF_ASC_NODE":"219.4293","RCS_SIZE":"LARGE","REV_AT_EPOCH":"11407","TIME_SYSTEM":"UTC","ARG_OF_PERICENTER":"71.3344"},{"GP_ID":"194911339","LAUNCH_DATE":"2020-01-07","SITE":"AFETR","SEMIMAJOR_AXIS":"6925.342","OBJECT_NAME":"STARLINK-1124","REF_FRAME":"TEME","OBJECT_ID":"2020-001AR","ELEMENT_SET_NO":"999","BSTAR":"0.00001507800000","FILE":"3287083","TLE_LINE1":"1 44953U 20001AR  22029.78657341 -.00000057  00000-0  15078-4 0  9992","OBJECT_TYPE":"PAYLOAD","MEAN_MOTION":"15.06402292","EPHEMERIS_TYPE":"0","TLE_LINE2":"2 44953  53.0511 219.9461 0001896  78.0998 282.0203 15.06402292115341","NORAD_CAT_ID":"44953","MEAN_MOTION_DDOT":"0.0000000000000","PERIOD":"95.592","MEAN_ANOMALY":"282.0203","DECAY_DATE":null,"PERIAPSIS":"545.893","MEAN_ELEMENT_THEORY":"SGP4","INCLINATION":"53.0511","MEAN_MOTION_DOT":"-0.00000057","COUNTRY_CODE":"US","EPOCH":"2022-01-29T18:52:39.942624","APOAPSIS":"548.520","ECCENTRICITY":"0.00018960","CLASSIFICATION_TYPE":"U","ARG_OF_PERICENTER":"78.0998","TIME_SYSTEM":"UTC","REV_AT_EPOCH":"11534","RCS_SIZE":"LARGE","RA_OF_ASC_NODE":"219.9461","CENTER_NAME":"EARTH"},{"LAUNCH_DATE":"2020-01-07","GP_ID":"194911591","SITE":"AFETR","REF_FRAME":"TEME","SEMIMAJOR_AXIS":"6925.142","OBJECT_NAME":"STARLINK-1066","ELEMENT_SET_NO":"999","OBJECT_ID":"2020-001AS","OBJECT_TYPE":"PAYLOAD","MEAN_MOTION":"15.06467410","TLE_LINE1":"1 44954U 20001AS  22029.86669228  .00008563  00000-0  59200-3 0  9992","BSTAR":"0.00059200000000","FILE":"3287083","NORAD_CAT_ID":"44954","EPHEMERIS_TYPE":"0","TLE_LINE2":"2 44954  53.0529 199.5789 0001717  88.1660 271.9526 15.06467410114298","MEAN_MOTION_DDOT":"0.0000000000000","INCLINATION":"53.0529","PERIAPSIS":"545.818","MEAN_ELEMENT_THEORY":"SGP4","DECAY_DATE":null,"MEAN_ANOMALY":"271.9526","PERIOD":"95.588","MEAN_MOTION_DOT":"0.00008563","COUNTRY_CODE":"US","EPOCH":"2022-01-29T20:48:02.212992","CLASSIFICATION_TYPE":"U","ECCENTRICITY":"0.00017170","APOAPSIS":"548.196","RCS_SIZE":"LARGE","REV_AT_EPOCH":"11429","TIME_SYSTEM":"UTC","ARG_OF_PERICENTER":"88.1660","CENTER_NAME":"EARTH","RA_OF_ASC_NODE":"199.5789"},{"REV_AT_EPOCH":"11429","RCS_SIZE":"LARGE","ARG_OF_PERICENTER":"77.6443","TIME_SYSTEM":"UTC","CENTER_NAME":"EARTH","RA_OF_ASC_NODE":"199.5663","MEAN_MOTION_DOT":"0.00001379","COUNTRY_CODE":"US","EPOCH":"2022-01-29T20:58:45.372864","CLASSIFICATION_TYPE":"U","APOAPSIS":"548.531","ECCENTRICITY":"0.00019120","TLE_LINE2":"2 44955  53.0545 199.5663 0001912  77.6443 282.4760 15.06402040114292","EPHEMERIS_TYPE":"0","NORAD_CAT_ID":"44955","MEAN_MOTION_DDOT":"0.0000000000000","PERIAPSIS":"545.883","MEAN_ELEMENT_THEORY":"SGP4","INCLINATION":"53.0545","PERIOD":"95.592","MEAN_ANOMALY":"282.4760","DECAY_DATE":null,"GP_ID":"194912341","LAUNCH_DATE":"2020-01-07","SITE":"AFETR","SEMIMAJOR_AXIS":"6925.342","OBJECT_NAME":"STARLINK-1069","REF_FRAME":"TEME","ELEMENT_SET_NO":"999","OBJECT_ID":"2020-001AT","TLE_LINE1":"1 44955U 20001AT  22029.87413626  .00001379  00000-0  11143-3 0  9995","MEAN_MOTION":"15.06402040","OBJECT_TYPE":"PAYLOAD","FILE":"3287083","BSTAR":"0.00011143000000"},{"MEAN_MOTION_DDOT":"0.0000000000000","MEAN_ELEMENT_THEORY":"SGP4","PERIAPSIS":"545.774","INCLINATION":"53.0540","MEAN_ANOMALY":"276.6400","PERIOD":"95.591","DECAY_DATE":null,"TLE_LINE2":"2 44956  53.0540 199.5755 0001989  83.4816 276.6400 15.06420148114355","EPHEMERIS_TYPE":"0","NORAD_CAT_ID":"44956","ELEMENT_SET_NO":"999","OBJECT_ID":"2020-001AU","TLE_LINE1":"1 44956U 20001AU  22029.87043033  .00004785  00000-0  33971-3 0  9994","OBJECT_TYPE":"PAYLOAD","MEAN_MOTION":"15.06420148","FILE":"3287083","BSTAR":"0.00033971000000","GP_ID":"194910589","LAUNCH_DATE":"2020-01-07","SITE":"AFETR","SEMIMAJOR_AXIS":"6925.287","OBJECT_NAME":"STARLINK-1070","REF_FRAME":"TEME","CENTER_NAME":"EARTH","RA_OF_ASC_NODE":"199.5755","REV_AT_EPOCH":"11435","RCS_SIZE":"LARGE","ARG_OF_PERICENTER":"83.4816","TIME_SYSTEM":"UTC","EPOCH":"2022-01-29T20:53:25.180512","CLASSIFICATION_TYPE":"U","ECCENTRICITY":"0.00019890","APOAPSIS":"548.529","MEAN_MOTION_DOT":"0.00004785","COUNTRY_CODE":"US"},{"MEAN_MOTION_DDOT":"0.0000000000000","INCLINATION":"53.0544","MEAN_ELEMENT_THEORY":"SGP4","PERIAPSIS":"545.761","DECAY_DATE":null,"PERIOD":"95.592","MEAN_ANOMALY":"278.1932","NORAD_CAT_ID":"44957","EPHEMERIS_TYPE":"0","TLE_LINE2":"2 44957  53.0544 199.4631 0002088  81.9294 278.1932 15.06401983114359","ELEMENT_SET_NO":"999","OBJECT_ID":"2020-001AV","OBJECT_TYPE":"PAYLOAD","MEAN_MOTION":"15.06401983","TLE_LINE1":"1 44957U 20001AV  22029.89624751 -.00000525  00000-0 -16324-4 0  9993","FILE":"3287083","BSTAR":"-0.00001632400000","LAUNCH_DATE":"2020-01-07","GP_ID":"194910840","SITE":"AFETR","OBJECT_NAME":"STARLINK-1074","SEMIMAJOR_AXIS":"6925.342","REF_FRAME":"TEME","CENTER_NAME":"EARTH","RA_OF_ASC_NODE":"199.4631","RCS_SIZE":"LARGE","REV_AT_EPOCH":"11435","TIME_SYSTEM":"UTC","ARG_OF_PERICENTER":"81.9294","EPOCH":"2022-01-29T21:30:35.784864","CLASSIFICATION_TYPE":"U","ECCENTRICITY":"0.00020880","APOAPSIS":"548.653","MEAN_MOTION_DOT":"-0.00000525","COUNTRY_CODE":"US"},{"SITE":"AFETR","SEMIMAJOR_AXIS":"6925.457","OBJECT_NAME":"STARLINK-1076","REF_FRAME":"TEME","GP_ID":"194912091","LAUNCH_DATE":"2020-01-07","TLE_LINE1":"1 44959U 20001AX  22029.91097196  .00001519  00000-0  12099-3 0  9991","OBJECT_TYPE":"PAYLOAD","MEAN_MOTION":"15.06364579","FILE":"3287083","BSTAR":"0.00012099000000","ELEMENT_SET_NO":"999","OBJECT_ID":"2020-001AX","TLE_LINE2":"2 44959  53.0519 199.3934 0001694  76.1957 283.9220 15.06364579114355","EPHEMERIS_TYPE":"0","NORAD_CAT_ID":"44959","PERIAPSIS":"546.149","MEAN_ELEMENT_THEORY":"SGP4","INCLINATION":"53.0519","MEAN_ANOMALY":"283.9220","PERIOD":"95.594","DECAY_DATE":null,"MEAN_MOTION_DDOT":"0.0000000000000","COUNTRY_CODE":"US","MEAN_MOTION_DOT":"0.00001519","CLASSIFICATION_TYPE":"U","ECCENTRICITY":"0.00016940","APOAPSIS":"548.495","EPOCH":"2022-01-29T21:51:47.977344","REV_AT_EPOCH":"11435","RCS_SIZE":"LARGE","ARG_OF_PERICENTER":"76.1957","TIME_SYSTEM":"UTC","CENTER_NAME":"EARTH","RA_OF_ASC_NODE":"199.3934"},{"MEAN_MOTION_DDOT":"0.0000000000000","DECAY_DATE":null,"PERIOD":"95.593","MEAN_ANOMALY":"273.7914","INCLINATION":"53.0545","MEAN_ELEMENT_THEORY":"SGP4","PERIAPSIS":"545.661","NORAD_CAT_ID":"44961","TLE_LINE2":"2 44961  53.0545 199.6566 0002278  86.3335 273.7914 15.06391782114356","EPHEMERIS_TYPE":"0","OBJECT_ID":"2020-001AZ","ELEMENT_SET_NO":"999","BSTAR":"-0.00003934200000","FILE":"3287083","OBJECT_TYPE":"PAYLOAD","MEAN_MOTION":"15.06391782","TLE_LINE1":"1 44961U 20001AZ  22029.85202040 -.00000868  00000-0 -39342-4 0  9992","LAUNCH_DATE":"2020-01-07","GP_ID":"194911842","SITE":"AFETR","SEMIMAJOR_AXIS":"6925.374","REF_FRAME":"TEME","OBJECT_NAME":"STARLINK-1080","RA_OF_ASC_NODE":"199.6566","CENTER_NAME":"EARTH","TIME_SYSTEM":"UTC","ARG_OF_PERICENTER":"86.3335","RCS_SIZE":"LARGE","REV_AT_EPOCH":"11435","EPOCH":"2022-01-29T20:26:54.562560","ECCENTRICITY":"0.00022780","APOAPSIS":"548.816","CLASSIFICATION_TYPE":"U","MEAN_MOTION_DOT":"-0.00000868","COUNTRY_CODE":"US"},{"MEAN_MOTION_DOT":"0.00012008","COUNTRY_CODE":"US","EPOCH":"2022-01-29T17:29:24.114048","ECCENTRICITY":"0.00016570","APOAPSIS":"538.136","CLASSIFICATION_TYPE":"U","TIME_SYSTEM":"UTC","ARG_OF_PERICENTER":"82.3984","RCS_SIZE":"LARGE","REV_AT_EPOCH":"11512","RA_OF_ASC_NODE":"194.3316","CENTER_NAME":"EARTH","LAUNCH_DATE":"2020-01-07","GP_ID":"194911089","OBJECT_NAME":"STARLINK-1085","SITE":"AFETR","SEMIMAJOR_AXIS":"6915.125","REF_FRAME":"TEME","OBJECT_ID":"2020-001BB","ELEMENT_SET_NO":"999","FILE":"3287083","BSTAR":"0.00075248000000","MEAN_MOTION":"15.09741812","OBJECT_TYPE":"PAYLOAD","TLE_LINE1":"1 44963U 20001BB  22029.72875132  .00012008  00000-0  75248-3 0  9999","NORAD_CAT_ID":"44963","TLE_LINE2":"2 44963  52.9975 194.3316 0001657  82.3984 277.7193 15.09741812115129","EPHEMERIS_TYPE":"0","MEAN_MOTION_DDOT":"0.0000000000000","DECAY_DATE":null,"MEAN_ANOMALY":"277.7193","PERIOD":"95.381","INCLINATION":"52.9975","PERIAPSIS":"535.844","MEAN_ELEMENT_THEORY":"SGP4"}];
